[{"OBJECT_NAME":"PAKTES 1A","OBJECT_ID":"2018-056A","EPOCH":"2026-03-10T00:00:36.622368","MEAN_MOTION":14.98554284,"ECCENTRICITY":0.00218522,"INCLINATION":98.1121,"RA_OF_ASC_NODE":221.3801,"ARG_OF_PERICENTER":79.2607,"MEAN_ANOMALY":281.1073,"EPHEMERIS_TYPE":0,"CLASSIFICATION_TYPE":"U","NORAD_CAT_ID":43529,"ELEMENT_SET_NO":999,"REV_AT_EPOCH":41706,"BSTAR":0.00036888675,"MEAN_MOTION_DOT":4.376e-5,"MEAN_MOTION_DDOT":0},{"OBJECT_NAME":"STARLINK-6177","OBJECT_ID":"2023-083E","EPOCH":"2026-03-09T01:20:27.107520","MEAN_MOTION":15.02536257,"ECCENTRICITY":0.00012897,"INCLINATION":43.0046,"RA_OF_ASC_NODE":85.3458,"ARG_OF_PERICENTER":260.5075,"MEAN_ANOMALY":99.5622,"EPHEMERIS_TYPE":0,"CLASSIFICATION_TYPE":"U","NORAD_CAT_ID":56880,"ELEMENT_SET_NO":999,"REV_AT_EPOCH":15157,"BSTAR":0.00022186577,"MEAN_MOTION_DOT":2.795e-5,"MEAN_MOTION_DDOT":0}]
